     3.00           N                   E                   RINEX VERSION / TYPE
BRD_USR             ESA                 20190102 041704  UTCPGM / RUN BY / DATE
 GAL   2.8750E+01  3.5938E-01  8.5449E-04  0.0000E+00       IONOSPHERIC CORR
GAUT  0.0000000000E+00 0.000000000E+00 259200 2034 GSTB   0 TIME SYSTEM CORR
GPGA -1.6589183360E-09-1.199040867E-14 259200 2034 GSTB   0 TIME SYSTEM CORR
                                                            END OF HEADER
E05 2019 01 02 02 00 00 1.322478638031E-04-6.565414878423E-12 0.000000000000E+00
     6.000000000000E+01-3.490625000000E+01 3.666224141523E-09-2.603454968509E+00
    -1.620501279831E-06 1.499830977991E-04 5.148351192474E-06 5.440608022690E+03
     2.664000000000E+05 1.862645149231E-08 1.366952158610E+00-3.725290298462E-08
     9.521825380190E-01 2.256875000000E+02 1.457312580953E+00-5.831671483954E-09
    -2.542963067476E-10 2.580000000000E+02 2.034000000000E+03 0.000000000000E+00
     3.120000000000E+00 0.000000000000E+00-1.396983861923E-09 0.000000000000E+00
     2.671000000000E+05 0.000000000000E+00 0.000000000000E+00 0.000000000000E+00
E07 2019 01 02 02 00 00-1.047904952429E-04-7.091216502886E-12 0.000000000000E+00
     6.000000000000E+01-2.993750000000E+01 3.572648815163E-09 2.697282098546E+00
    -1.363456249237E-06 1.595616340637E-04 5.578622221947E-06 5.440609237671E+03
     2.664000000000E+05-3.725290298462E-09 1.366969751663E+00 4.284083843231E-08
     9.522131803011E-01 2.161875000000E+02 8.188677658150E-02-5.775597719685E-09
    -2.525105180766E-10 2.580000000000E+02 2.034000000000E+03 0.000000000000E+00
     3.120000000000E+00 0.000000000000E+00 4.656612873077E-10 0.000000000000E+00
     2.671000000000E+05 0.000000000000E+00 0.000000000000E+00 0.000000000000E+00
E08 2019 01 02 02 00 00 6.431647692807E-03-7.474909580196E-12 0.000000000000E+00
     6.000000000000E+01-3.018750000000E+01 3.458358340221E-09 3.088410388049E+00
    -1.370906829834E-06 2.407234860584E-04 5.539506673813E-06 5.440609750748E+03
     2.664000000000E+05-2.980232238770E-08 1.358307995117E+00 1.303851604462E-08
     9.581523073238E-01 2.202500000000E+02 4.774292268208E-01-5.739881946265E-09
    -2.239378993409E-10 2.580000000000E+02 2.034000000000E+03 0.000000000000E+00
     3.120000000000E+00 0.000000000000E+00-8.381903171539E-09 0.000000000000E+00
     2.671000000000E+05 0.000000000000E+00 0.000000000000E+00 0.000000000000E+00
E09 2019 01 02 02 00 00 6.570696772542E-03-1.132605120802E-11 0.000000000000E+00
     6.000000000000E+01-2.856250000000E+01 3.568720080087E-09-5.018639993243E-01
    -1.253560185432E-06 2.642985200509E-04 5.537644028664E-06 5.440605848312E+03
     2.664000000000E+05 2.980232238770E-08 1.358304068645E+00-3.725290298462E-08
     9.581822781265E-01 2.190625000000E+02 1.394655732324E-01-5.767740249533E-09
    -2.110802209099E-10 2.580000000000E+02 2.034000000000E+03 0.000000000000E+00
     3.120000000000E+00 0.000000000000E+00-3.259629011154E-09 0.000000000000E+00
     2.671000000000E+05 0.000000000000E+00 0.000000000000E+00 0.000000000000E+00
E14 2019 01 02 02 00 00 6.466076418292E-03-5.584865903074E-12 0.000000000000E+00
     6.000000000000E+01-5.281250000000E+01 2.182233755938E-09-1.654179658331E+00
    -1.896172761917E-06 1.663215501467E-01 5.556270480156E-06 5.289343046188E+03
     2.664000000000E+05 6.027519702911E-06-1.337818265021E+00-4.693865776062E-07
     8.826400953314E-01 2.020937500000E+02 1.450056437060E+00-2.114730944175E-09
     1.271481533738E-10 2.580000000000E+02 2.034000000000E+03 0.000000000000E+00
     3.120000000000E+00 5.600000000000E+01 3.329478204250E-08 0.000000000000E+00
     2.671000000000E+05 0.000000000000E+00 0.000000000000E+00 0.000000000000E+00
E19 2019 01 02 02 00 00-9.439710993320E-06 2.700062395888E-13 0.000000000000E+00
     6.000000000000E+01-2.946875000000E+01 3.484788012551E-09-8.603105614224E-01
    -1.339241862297E-06 1.313332468271E-04 5.898997187614E-06 5.440606554031E+03
     2.664000000000E+05-5.587935447693E-09 1.363663015524E+00-5.587935447693E-09
     9.579409288276E-01 2.126250000000E+02 2.148040187913E+00-5.673450607705E-09
    -2.846547141543E-10 2.580000000000E+02 2.034000000000E+03 0.000000000000E+00
     3.120000000000E+00 0.000000000000E+00-8.614733815193E-09 0.000000000000E+00
     2.671000000000E+05 0.000000000000E+00 0.000000000000E+00 0.000000000000E+00
E21 2019 01 02 02 00 00-5.123532027937E-04-1.989519660128E-12 0.000000000000E+00
     6.000000000000E+01 1.603125000000E+02 2.841546933264E-09 4.803962207166E-01
     7.519498467445E-06 4.742131568491E-05 4.306435585022E-06 5.440630304337E+03
     2.664000000000E+05 7.078051567078E-08-2.826649146814E+00-3.352761268616E-08
     9.898664592484E-01 2.654375000000E+02-5.579826559773E-01-5.600590429929E-09
     3.107272287506E-10 2.580000000000E+02 2.034000000000E+03 0.000000000000E+00
     3.120000000000E+00 0.000000000000E+00-2.561137080193E-09 0.000000000000E+00
     2.671000000000E+05 0.000000000000E+00 0.000000000000E+00 0.000000000000E+00
E24 2019 01 02 02 00 00 6.307621195447E-03-1.966782292584E-11 0.000000000000E+00
     6.000000000000E+01 1.724375000000E+02 2.836546724985E-09-2.883299364992E+00
     7.865950465202E-06 4.570255987346E-04 5.567446351051E-06 5.440621082306E+03
     2.664000000000E+05-2.607703208923E-08-2.820563821610E+00-7.636845111847E-08
     9.878681482622E-01 2.352500000000E+02 4.281707299324E-01-5.623091367183E-09
     3.171560679661E-10 2.580000000000E+02 2.034000000000E+03 0.000000000000E+00
     3.120000000000E+00 0.000000000000E+00 4.260800778866E-08 0.000000000000E+00
     2.671000000000E+05 0.000000000000E+00 0.000000000000E+00 0.000000000000E+00
E25 2019 01 02 02 00 00 1.936311018653E-03-1.131184035330E-11 0.000000000000E+00
     6.000000000000E+01 1.617812500000E+02 2.834403778580E-09-1.834465871518E+00
     7.601454854012E-06 2.257231390104E-04 5.770474672318E-06 5.440629390717E+03
     2.664000000000E+05-6.519258022308E-08-2.826657622962E+00-1.862645149231E-09
     9.898716555334E-01 2.312187500000E+02-1.383188653348E+00-5.543445192457E-09
     2.907263956356E-10 2.580000000000E+02 2.034000000000E+03 0.000000000000E+00
     3.120000000000E+00 0.000000000000E+00-1.396983861923E-09 0.000000000000E+00
     2.671000000000E+05 0.000000000000E+00 0.000000000000E+00 0.000000000000E+00
E27 2019 01 02 02 00 00 5.581747391261E-04-7.702283255639E-12 0.000000000000E+00
     6.000000000000E+01 1.560625000000E+02 2.809402737186E-09 1.681792888076E+00
     7.210299372673E-06 2.128398045897E-04 4.431232810020E-06 5.440628135681E+03
     2.664000000000E+05 3.725290298462E-08-2.826632629006E+00 2.980232238770E-08
     9.898394303740E-01 2.619687500000E+02-9.725696868370E-01-5.547373927534E-09
     2.571535686212E-10 2.580000000000E+02 2.034000000000E+03 0.000000000000E+00
     3.120000000000E+00 0.000000000000E+00-2.793967723846E-09 0.000000000000E+00
     2.671000000000E+05 0.000000000000E+00 0.000000000000E+00 0.000000000000E+00
E30 2019 01 02 02 00 00 5.222007690463E-03-3.039701823582E-11 0.000000000000E+00
     6.000000000000E+01 1.569062500000E+02 2.754757603854E-09 9.918971782589E-01
     7.294118404388E-06 2.885924186558E-04 5.051493644714E-06 5.440623064041E+03
     2.664000000000E+05 2.607703208923E-08-2.820619747506E+00 6.519258022308E-08
     9.878527993257E-01 2.434062500000E+02 4.824351306054E-01-5.579518123611E-09
     2.589393572922E-10 2.580000000000E+02 2.034000000000E+03 0.000000000000E+00
     3.120000000000E+00 0.000000000000E+00-3.026798367500E-09 0.000000000000E+00
     2.671000000000E+05 0.000000000000E+00 0.000000000000E+00 0.000000000000E+00
E33 2019 01 02 02 00 00 8.478511590511E-04 0.000000000000E+00 0.000000000000E+00
     6.000000000000E+01-1.410000000000E+02 2.549391906692E-09-1.441039564465E+00
    -6.612390279770E-06 3.546873340383E-04 1.126527786255E-05 5.440602994919E+03
     2.664000000000E+05-2.421438694000E-08-7.436771514927E-01-2.793967723846E-08
     9.852798628954E-01 1.059375000000E+02-1.534478046907E+00-5.312721296167E-09
    -4.357324357192E-11 2.580000000000E+02 2.034000000000E+03 0.000000000000E+00
     3.120000000000E+00 5.600000000000E+01-8.149072527885E-09 0.000000000000E+00
     2.671000000000E+05 0.000000000000E+00 0.000000000000E+00 0.000000000000E+00
E36 2019 01 02 02 00 00 7.645719451830E-04-4.462208380573E-12 0.000000000000E+00
     6.000000000000E+01-1.480000000000E+02 2.614751772050E-09 2.612295304928E+00
    -6.787478923798E-06 3.267406718805E-04 9.419396519661E-06 5.440603019714E+03
     2.664000000000E+05 4.470348358154E-08-7.436512871011E-01-1.676380634308E-08
     9.852880274412E-01 1.484062500000E+02-1.659035659826E+00-5.311292665230E-09
    -6.357407668690E-11 2.580000000000E+02 2.034000000000E+03 0.000000000000E+00
     3.120000000000E+00 5.600000000000E+01 9.313225746155E-10 0.000000000000E+00
     2.671000000000E+05 0.000000000000E+00 0.000000000000E+00 0.000000000000E+00
E30 2019 01 02 02 00 00 5.222007108387E-03-3.039701823582E-11 0.000000000000E+00
     6.000000000000E+01 1.569062500000E+02 2.754757603854E-09 9.918971782589E-01
     7.294118404388E-06 2.885924186558E-04 5.051493644714E-06 5.440623064041E+03
     2.664000000000E+05 2.607703208923E-08-2.820619747506E+00 6.519258022308E-08
     9.878527993257E-01 2.434062500000E+02 4.824351306054E-01-5.579518123611E-09
     2.589393572922E-10 5.210000000000E+02 2.034000000000E+03 0.000000000000E+00
     3.120000000000E+00 0.000000000000E+00-3.026798367500E-09-3.725290298462E-09
     2.671150000000E+05 0.000000000000E+00 0.000000000000E+00 0.000000000000E+00
